[{"OBJECT_NAME":"STARLINK-30418","OBJECT_ID":"2023-138X","EPOCH":"2026-03-09T22:00:01.999584","MEAN_MOTION":15.26706423,"ECCENTRICITY":0.00015469,"INCLINATION":42.9999,"RA_OF_ASC_NODE":232.5522,"ARG_OF_PERICENTER":269.6119,"MEAN_ANOMALY":212.0984,"EPHEMERIS_TYPE":0,"CLASSIFICATION_TYPE":"U","NORAD_CAT_ID":57829,"ELEMENT_SET_NO":999,"REV_AT_EPOCH":578,"BSTAR":0.0027952492,"MEAN_MOTION_DOT":0.00075413,"MEAN_MOTION_DDOT":0},{"OBJECT_NAME":"FENGYUN 1C DEB","OBJECT_ID":"1999-025EJQ","EPOCH":"2026-03-08T21:27:56.444256","MEAN_MOTION":15.23229897,"ECCENTRICITY":0.00101559,"INCLINATION":98.6645,"RA_OF_ASC_NODE":227.592,"ARG_OF_PERICENTER":263.6857,"MEAN_ANOMALY":96.3219,"EPHEMERIS_TYPE":0,"CLASSIFICATION_TYPE":"U","NORAD_CAT_ID":37470,"ELEMENT_SET_NO":999,"REV_AT_EPOCH":66762,"BSTAR":0.011057202,"MEAN_MOTION_DOT":0.00271626,"MEAN_MOTION_DDOT":0}]
